      2.10          N: GNSS NAV DATA                        RINEX VERSION / TYPE
fic2rin                                 03/14/2024 00:18:06 PGM / RUN BY / DATE
                                                            END OF HEADER
1  24  3 13  1 59 44.0  .173675362021D-03  .193267624127D-11  .000000000000D+00
     .900000000000D+01 -.857812500000D+02  .365122351669D-08 -.263784060049D+01
    -.461563467979D-05  .128770407755D-01  .115483999252D-04  .515400934219D+04
     .266384000000D+06  .163912773132D-06 -.286265880658D+01 -.141561031342D-06
     .990956909607D+00  .169968750000D+03  .100082506447D+01 -.743280960635D-08
    -.242867259253D-10  .100000000000D+01  .230500000000D+04  .000000000000D+00
     .240000000000D+01  .630000000000D+02  .512227416039D-08  .900000000000D+01
     .259200000000D+06  .400000000000D+01
8  24  3 13  1 59 44.0  .507053919137D-04  .273985278909D-10  .000000000000D+00
     .150000000000D+02 -.278437500000D+02  .517771567264D-08 -.259143375665D+00
    -.135041773319D-05  .941817206331D-02  .197254121304D-05  .515359597015D+04
     .266384000000D+06  .931322574615D-07  .231960625072D+01  .109896063805D-06
     .954104739229D+00  .335593750000D+03  .338027428039D+00 -.883965392135D-08
    -.132862677121D-09  .100000000000D+01  .230500000000D+04  .000000000000D+00
     .240000000000D+01  .000000000000D+00  .512227416039D-08  .150000000000D+02
     .259200000000D+06  .400000000000D+01
14 24  3 13  2  0  0.0  .349030364305D-03  .977706804406D-11  .000000000000D+00
     .114000000000D+03  .112625000000D+03  .484663045304D-08  .249571604199D+01
     .596791505814D-05  .411283399444D-02  .672042369843D-05  .515369812965D+04
     .266400000000D+06 -.147148966789D-06  .133023296310D+01  .186264514923D-08
     .946090244936D+00  .239875000000D+03 -.295813162583D+01 -.837392023596D-08
     .446804325479D-09  .100000000000D+01  .230500000000D+04  .000000000000D+00
     .240000000000D+01  .000000000000D+00 -.791624188423D-08  .370000000000D+03
     .259200000000D+06  .400000000000D+01
23 24  3 13  2  0  0.0  .175824854523D-03  .864019966684D-11  .000000000000D+00
     .199000000000D+03  .464062500000D+02  .425982029576D-08  .289101314477D+01
     .239722430706D-05  .400073314086D-02  .966154038906D-05  .515370544052D+04
     .266400000000D+06 -.502914190292D-07 -.186579262518D+01  .186264514923D-07
     .977842390306D+00  .202406250000D+03 -.295933024727D+01 -.786497046473D-08
     .608596779070D-09  .100000000000D+01  .230500000000D+04  .000000000000D+00
     .240000000000D+01  .000000000000D+00 -.838190317154D-08  .967000000000D+03
     .259200000000D+06  .400000000000D+01
25 24  3 13  1 59 44.0  .491142272949D-03  .102318153949D-11  .000000000000D+00
     .100000000000D+01  .133000000000D+03  .461662087222D-08  .238734953238D+01
     .670552253723D-05  .118219649885D-01  .726245343685D-05  .515360624313D+04
     .266384000000D+06  .134110450745D-06  .128777071840D+01 -.175088644028D-06
     .950678863042D+00  .232312500000D+03  .108315989921D+01 -.816319717279D-08
     .490734726785D-09  .100000000000D+01  .230500000000D+04  .000000000000D+00
     .240000000000D+01  .000000000000D+00  .558793544769D-08  .100000000000D+01
     .261600000000D+06  .400000000000D+01
6  24  3 13  1 59 44.0  .370347406715D-03 -.162572177942D-10  .000000000000D+00
     .100000000000D+01 -.683125000000D+02  .368265339730D-08 -.221532798418D+01
    -.351481139660D-05  .313347461633D-02  .117272138596D-04  .515358730698D+04
     .266384000000D+06 -.596046447754D-07 -.287106697359D+01  .875443220139D-07
     .990056116337D+00  .171031250000D+03 -.737695921688D+00 -.756602944121D-08
    -.127505311108D-09  .100000000000D+01  .230500000000D+04  .000000000000D+00
     .240000000000D+01  .000000000000D+00  .372529029846D-08  .100000000000D+01
     .262830000000D+06  .400000000000D+01
3  24  3 13  1 59 44.0  .248590484262D-03  .228510543820D-10  .000000000000D+00
     .500000000000D+01  .374375000000D+02  .410838541646D-08  .279879964849D+01
     .188127160072D-05  .519069610164D-02  .909157097340D-05  .515376060677D+04
     .266384000000D+06  .931322574615D-08 -.183458811003D+01 -.124797224998D-06
     .983004220677D+00  .212562500000D+03  .106368311700D+01 -.774782272792D-08
     .518593030053D-09  .100000000000D+01  .230500000000D+04  .000000000000D+00
     .240000000000D+01  .000000000000D+00  .186264514923D-08  .500000000000D+01
     .262920000000D+06  .400000000000D+01
29 24  3 13  1 59 44.0 -.604954082519D-03  .102318153949D-11  .000000000000D+00
     .440000000000D+02 -.580937500000D+02  .466733727047D-08 -.217448248632D+00
    -.309385359287D-05  .269338372163D-02  .300817191601D-05  .515362524605D+04
     .266384000000D+06 -.372529029846D-07  .242797537017D+01  .000000000000D+00
     .972311304783D+00  .324812500000D+03  .249440577794D+01 -.850213986254D-08
    -.225366530278D-09  .100000000000D+01  .230500000000D+04  .000000000000D+00
     .240000000000D+01  .000000000000D+00 -.102445483208D-07  .440000000000D+02
     .265350000000D+06  .400000000000D+01
6  24  3 13  3 59 44.0  .370230060071D-03 -.162572177942D-10  .000000000000D+00
     .300000000000D+01 -.817812500000D+02  .373229832235D-08 -.116567534875D+01
    -.446848571301D-05  .313317589462D-02  .114440917969D-04  .515358398628D+04
     .273584000000D+06 -.484287738800D-07 -.287112243428D+01 -.596046447754D-07
     .990055008908D+00  .176781250000D+03 -.737119994246D+00 -.768139138936D-08
    -.646455498895D-10  .100000000000D+01  .230500000000D+04  .000000000000D+00
     .240000000000D+01  .000000000000D+00  .372529029846D-08  .300000000000D+01
     .266400000000D+06  .400000000000D+01
3  24  3 13  3 59 44.0  .248755328357D-03  .228510543820D-10  .000000000000D+00
     .100000000000D+02  .331250000000D+02  .420446084696D-08 -.243421905186D+01
     .179745256901D-05  .519100797828D-02  .933185219765D-05  .515376010132D+04
     .273584000000D+06  .152736902237D-06 -.183464486101D+01  .186264514923D-08
     .983008290515D+00  .211656250000D+03  .106364260002D+01 -.779889628391D-08
     .662884754668D-09  .100000000000D+01  .230500000000D+04  .000000000000D+00
     .240000000000D+01  .000000000000D+00  .186264514923D-08  .100000000000D+02
     .266400000000D+06  .400000000000D+01
25 24  3 13  3 59 44.0  .491149723530D-03  .102318153949D-11  .000000000000D+00
     .400000000000D+01  .123750000000D+03  .463662170533D-08 -.284562001831D+01
     .638514757156D-05  .118234192487D-01  .694021582603D-05  .515360366440D+04
     .273584000000D+06  .689178705215D-07  .128771291411D+01 -.372529029846D-07
     .950682442803D+00  .239937500000D+03  .108316693000D+01 -.806283584948D-08
     .424303388225D-09  .100000000000D+01  .230500000000D+04  .000000000000D+00
     .240000000000D+01  .000000000000D+00  .558793544769D-08  .400000000000D+01
     .266400000000D+06  .400000000000D+01
29 24  3 13  3 59 44.0 -.604947097600D-03  .102318153949D-11  .000000000000D+00
     .450000000000D+02 -.577812500000D+02  .457197615544D-08  .832706406159D+00
    -.298395752907D-05  .269354518969D-02  .300258398056D-05  .515362563705D+04
     .273584000000D+06  .428408384323D-07  .242791428456D+01 -.707805156708D-07
     .972310200280D+00  .326718750000D+03  .249446249528D+01 -.840142138149D-08
    -.203579908492D-09  .100000000000D+01  .230500000000D+04  .000000000000D+00
     .240000000000D+01  .000000000000D+00 -.102445483208D-07  .450000000000D+02
     .266400000000D+06  .400000000000D+01
2  24  3 13  4  0  0.0 -.471176579595D-03  .613908923697D-11  .000000000000D+00
     .490000000000D+02 -.111718750000D+03  .424553398639D-08  .109483030625D+01
    -.607036054134D-05  .161196695408D-01  .103488564491D-04  .515371580887D+04
     .273600000000D+06  .484287738800D-07 -.296768986150D+01 -.394880771637D-06
     .967834307327D+00  .188468750000D+03 -.122263469176D+01 -.811355224773D-08
    -.222509268404D-09  .100000000000D+01  .230500000000D+04  .000000000000D+00
     .240000000000D+01  .000000000000D+00 -.176951289177D-07  .490000000000D+02
     .266400000000D+06  .400000000000D+01
1  24  3 13  4  0  0.0  .173689797521D-03  .193267624127D-11  .000000000000D+00
     .100000000000D+02 -.893125000000D+02  .363443710318D-08 -.158551578865D+01
    -.459142029285D-05  .128771695308D-01  .113192945719D-04  .515400965691D+04
     .273600000000D+06  .316649675369D-06 -.286271217529D+01 -.279396772385D-07
     .990956470732D+00  .172093750000D+03  .100080291736D+01 -.751459872749D-08
    -.871464871438D-10  .100000000000D+01  .230500000000D+04  .000000000000D+00
     .240000000000D+01  .630000000000D+02  .512227416039D-08  .100000000000D+02
     .266400000000D+06  .400000000000D+01
